{
    "links": {
        "self": "http://www.neowsapp.com/rest/v1/neo/3306406?api_key=iIulBulltgU6a56xZRHN4H3l9WmuAYTsLGpBGhQ2"
    },
    "id": "3306406",
    "neo_reference_id": "3306406",
    "name": "(2005 XW4)",
    "designation": "2005 XW4",
    "nasa_jpl_url": "http://ssd.jpl.nasa.gov/sbdb.cgi?sstr=3306406",
    "absolute_magnitude_h": 21.4,
    "estimated_diameter": {
        "kilometers": {
            "estimated_diameter_min": 0.1394938229,
            "estimated_diameter_max": 0.3119176705
        },
        "meters": {
            "estimated_diameter_min": 139.4938229344,
            "estimated_diameter_max": 311.9176705226
        },
        "miles": {
            "estimated_diameter_min": 0.0866774163,
            "estimated_diameter_max": 0.1938165949
        },
        "feet": {
            "estimated_diameter_min": 457.6569140361,
            "estimated_diameter_max": 1023.3519701574
        }
    },
    "is_potentially_hazardous_asteroid": false,
    "close_approach_data": [
        {
            "close_approach_date": "2004-12-09",
            "close_approach_date_full": "2004-Dec-09 07:29",
            "epoch_date_close_approach": 1102577340000,
            "relative_velocity": {
                "kilometers_per_second": "30.5226564049",
                "kilometers_per_hour": "109881.5630576954",
                "miles_per_hour": "68276.1301121553"
            },
            "miss_distance": {
                "astronomical": "0.2118501046",
                "lunar": "82.4096906894",
                "kilometers": "31692324.407437202",
                "miles": "19692697.2242773076"
            },
            "orbiting_body": "Earth"
        },
        {
            "close_approach_date": "2005-02-04",
            "close_approach_date_full": "2005-Feb-04 05:27",
            "epoch_date_close_approach": 1107494820000,
            "relative_velocity": {
                "kilometers_per_second": "35.8393631335",
                "kilometers_per_hour": "129021.7072805086",
                "miles_per_hour": "80169.0713932693"
            },
            "miss_distance": {
                "astronomical": "0.0431067201",
                "lunar": "16.7685141189",
                "kilometers": "6448673.509646187",
                "miles": "4007019.9109119006"
            },
            "orbiting_body": "Merc"
        },
        {
            "close_approach_date": "2005-12-19",
            "close_approach_date_full": "2005-Dec-19 19:14",
            "epoch_date_close_approach": 1135019640000,
            "relative_velocity": {
                "kilometers_per_second": "20.7776234242",
                "kilometers_per_hour": "74799.4443270678",
                "miles_per_hour": "46477.4658375605"
            },
            "miss_distance": {
                "astronomical": "0.1532997296",
                "lunar": "59.6335948144",
                "kilometers": "22933313.019735952",
                "miles": "14250099.9245500576"
            },
            "orbiting_body": "Earth"
        },
        {
            "close_approach_date": "2006-12-13",
            "close_approach_date_full": "2006-Dec-13 07:49",
            "epoch_date_close_approach": 1165996140000,
            "relative_velocity": {
                "kilometers_per_second": "17.1205634442",
                "kilometers_per_hour": "61634.0283992395",
                "miles_per_hour": "38296.9883684052"
            },
            "miss_distance": {
                "astronomical": "0.4447367663",
                "lunar": "173.0026020907",
                "kilometers": "66531672.949167781",
                "miles": "41340864.5692501378"
            },
            "orbiting_body": "Earth"
        },
        {
            "close_approach_date": "2007-02-27",
            "close_approach_date_full": "2007-Feb-27 08:34",
            "epoch_date_close_approach": 1172565240000,
            "relative_velocity": {
                "kilometers_per_second": "29.557659504",
                "kilometers_per_hour": "106407.5742142434",
                "miles_per_hour": "66117.5285444003"
            },
            "miss_distance": {
                "astronomical": "0.0906894781",
                "lunar": "35.2782069809",
                "kilometers": "13566952.755171647",
                "miles": "8430113.5325048486"
            },
            "orbiting_body": "Merc"
        }
    ],
    "orbital_data": {
        "orbit_id": "14",
        "orbit_determination_date": "2017-04-06 09:09:41",
        "first_observation_date": "2005-12-06",
        "last_observation_date": "2005-12-25",
        "data_arc_in_days": 19,
        "observations_used": 43,
        "orbit_uncertainty": "9",
        "minimum_orbit_intersection": ".067991",
        "jupiter_tisserand_invariant": "5.608",
        "epoch_osculation": "2453716.5",
        "eccentricity": ".7101022372604477",
        "semi_major_axis": "1.03842171223819",
        "inclination": "18.2537515662958",
        "ascending_node_longitude": "73.1916978297003",
        "orbital_period": "386.5085158936225",
        "perihelion_distance": ".3010361311580264",
        "perihelion_argument": "145.3764987944633",
        "aphelion_distance": "1.775807293318354",
        "perihelion_time": "2453779.795036164849",
        "mean_anomaly": "301.0460259415939",
        "mean_motion": ".9314154415657989",
        "equinox": "J2000",
        "orbit_class": {
            "orbit_class_type": "APO",
            "orbit_class_description": "Near-Earth asteroid orbits which cross the Earth’s orbit similar to that of 1862 Apollo",
            "orbit_class_range": "a (semi-major axis) > 1.0 AU; q (perihelion) < 1.017 AU"
        }
    },
    "is_sentry_object": false
}